SL-3 R/B                
1 13403U 82079B   26015.82676063  .00003022  00000+0  12251-3 0  9999
2 13403  81.1459 255.4696 0025277 347.8066  12.2551 15.24035676369648
SL-14 R/B               
1 13553U 82092B   26015.53708505  .00000374  00000+0  39201-4 0  9997
2 13553  82.5672 191.1016 0021727 115.8145 302.0319 14.86594203321031
SL-3 R/B                
1 13819U 83010B   26015.60203668  .00007958  00000+0  17032-3 0  9993
2 13819  81.1034  67.2524 0016337 228.3148 131.6699 15.44483556349742
SL-3 R/B                
1 14208U 83075B   26015.78189353  .00006700  00000+0  18615-3 0  9992
2 14208  97.6112  18.4303 0024243  61.4943 298.8738 15.36934587322029
COSMOS 1536             
1 14699U 84013A   26015.84536610  .00003592  00000+0  15083-3 0  9990
2 14699  82.5460 160.3295 0015675 107.5011 252.7941 15.23012788264572
SL-14 R/B               
1 14820U 84027B   26015.76490111  .00000299  00000+0  31382-4 0  9999
2 14820  82.5432 294.6518 0018796 144.5442 215.7028 14.85915305239775
SL-8 R/B                
1 15483U 85006B   26015.43943277  .00000213  00000+0  79477-4 0  9996
2 15483  74.0465 359.1280 0019778 285.7678 189.2008 14.37746153146372
SL-12 R/B(2)            
1 15772U 85042D   26015.72669806 -.00000003  00000+0  20054-4 0  9997
2 15772  71.1064 199.6193 0036372 211.1769 226.2369 14.21962388106864
SL-14 R/B               
1 15945U 85069B   26015.63111575  .00000298  00000+0  30968-4 0  9993
2 15945  82.5255  74.8393 0019061  13.0093 347.1611 14.86365121164955
SL-16 R/B               
1 16182U 85097B   26015.74513659 -.00000124  00000+0 -38203-4 0  9999
2 16182  71.0018 252.0142 0008708 322.3937 102.0781 14.16592270 79737
SL-14 R/B               
1 16496U 86006B   26015.75643925  .00000464  00000+0  46361-4 0  9998
2 16496  82.5288 309.5476 0078291  88.1633 272.8549 14.86722002141343
COSMOS 1743             
1 16719U 86034A   26015.73415193  .00023604  00000+0  35810-3 0  9996
2 16719  82.5357 129.2242 0005381 125.9449 234.2305 15.54445066172019
