CCSDS_OMM_VERS = 2.0
CREATION_DATE  = 
ORIGINATOR     = 

OBJECT_NAME    = SL-3 R/B
OBJECT_ID      = 1982-079B
CENTER_NAME    = EARTH
REF_FRAME      = TEME
TIME_SYSTEM    = UTC
MEAN_ELEMENT_THEORY = SGP/SGP4

EPOCH          = 2026-01-15T19:50:32.118432
MEAN_MOTION    = 15.24035676
ECCENTRICITY   = .0025277
INCLINATION    = 81.1459
RA_OF_ASC_NODE = 255.4696
ARG_OF_PERICENTER = 347.8066
MEAN_ANOMALY   = 12.2551

EPHEMERIS_TYPE = 0
CLASSIFICATION_TYPE = U
NORAD_CAT_ID   = 13403
ELEMENT_SET_NO = 999
REV_AT_EPOCH   = 36964
BSTAR          = .12251E-3
MEAN_MOTION_DOT = .3022E-4
MEAN_MOTION_DDOT = 0

CCSDS_OMM_VERS = 2.0
CREATION_DATE  = 
ORIGINATOR     = 

OBJECT_NAME    = SL-14 R/B
OBJECT_ID      = 1982-092B
CENTER_NAME    = EARTH
REF_FRAME      = TEME
TIME_SYSTEM    = UTC
MEAN_ELEMENT_THEORY = SGP/SGP4

EPOCH          = 2026-01-15T12:53:24.148320
MEAN_MOTION    = 14.86594203
ECCENTRICITY   = .00217271
INCLINATION    = 82.5672
RA_OF_ASC_NODE = 191.1016
ARG_OF_PERICENTER = 115.8145
MEAN_ANOMALY   = 302.0319

EPHEMERIS_TYPE = 0
CLASSIFICATION_TYPE = U
NORAD_CAT_ID   = 13553
ELEMENT_SET_NO = 999
REV_AT_EPOCH   = 32103
BSTAR          = .3920075E-4
MEAN_MOTION_DOT = .374E-5
MEAN_MOTION_DDOT = 0

CCSDS_OMM_VERS = 2.0
CREATION_DATE  = 
ORIGINATOR     = 

OBJECT_NAME    = SL-3 R/B
OBJECT_ID      = 1983-010B
CENTER_NAME    = EARTH
REF_FRAME      = TEME
TIME_SYSTEM    = UTC
MEAN_ELEMENT_THEORY = SGP/SGP4

EPOCH          = 2026-01-15T14:26:55.969152
MEAN_MOTION    = 15.44483556
ECCENTRICITY   = .0016337
INCLINATION    = 81.1034
RA_OF_ASC_NODE = 67.2524
ARG_OF_PERICENTER = 228.3148
MEAN_ANOMALY   = 131.6699

EPHEMERIS_TYPE = 0
CLASSIFICATION_TYPE = U
NORAD_CAT_ID   = 13819
ELEMENT_SET_NO = 999
REV_AT_EPOCH   = 34974
BSTAR          = .17032E-3
MEAN_MOTION_DOT = .7958E-4
MEAN_MOTION_DDOT = 0

CCSDS_OMM_VERS = 2.0
CREATION_DATE  = 
ORIGINATOR     = 

OBJECT_NAME    = SL-3 R/B
OBJECT_ID      = 1983-075B
CENTER_NAME    = EARTH
REF_FRAME      = TEME
TIME_SYSTEM    = UTC
MEAN_ELEMENT_THEORY = SGP/SGP4

EPOCH          = 2026-01-15T18:45:55.600992
MEAN_MOTION    = 15.36934587
ECCENTRICITY   = .0024243
INCLINATION    = 97.6112
RA_OF_ASC_NODE = 18.4303
ARG_OF_PERICENTER = 61.4943
MEAN_ANOMALY   = 298.8738

EPHEMERIS_TYPE = 0
CLASSIFICATION_TYPE = U
NORAD_CAT_ID   = 14208
ELEMENT_SET_NO = 999
REV_AT_EPOCH   = 32202
BSTAR          = .18615E-3
MEAN_MOTION_DOT = .67E-4
MEAN_MOTION_DDOT = 0

CCSDS_OMM_VERS = 2.0
CREATION_DATE  = 
ORIGINATOR     = 

OBJECT_NAME    = COSMOS 1536
OBJECT_ID      = 1984-013A
CENTER_NAME    = EARTH
REF_FRAME      = TEME
TIME_SYSTEM    = UTC
MEAN_ELEMENT_THEORY = SGP/SGP4

EPOCH          = 2026-01-15T20:17:19.631040
MEAN_MOTION    = 15.23012788
ECCENTRICITY   = .0015675
INCLINATION    = 82.5460
RA_OF_ASC_NODE = 160.3295
ARG_OF_PERICENTER = 107.5011
MEAN_ANOMALY   = 252.7941

EPHEMERIS_TYPE = 0
CLASSIFICATION_TYPE = U
NORAD_CAT_ID   = 14699
ELEMENT_SET_NO = 999
REV_AT_EPOCH   = 26457
BSTAR          = .15083E-3
MEAN_MOTION_DOT = .3592E-4
MEAN_MOTION_DDOT = 0

CCSDS_OMM_VERS = 2.0
CREATION_DATE  = 
ORIGINATOR     = 

OBJECT_NAME    = SL-14 R/B
OBJECT_ID      = 1984-027B
CENTER_NAME    = EARTH
REF_FRAME      = TEME
TIME_SYSTEM    = UTC
MEAN_ELEMENT_THEORY = SGP/SGP4

EPOCH          = 2026-01-15T18:21:27.455904
MEAN_MOTION    = 14.85915305
ECCENTRICITY   = .0018796
INCLINATION    = 82.5432
RA_OF_ASC_NODE = 294.6518
ARG_OF_PERICENTER = 144.5442
MEAN_ANOMALY   = 215.7028

EPHEMERIS_TYPE = 0
CLASSIFICATION_TYPE = U
NORAD_CAT_ID   = 14820
ELEMENT_SET_NO = 999
REV_AT_EPOCH   = 23977
BSTAR          = .31382E-4
MEAN_MOTION_DOT = .299E-5
MEAN_MOTION_DDOT = 0

CCSDS_OMM_VERS = 2.0
CREATION_DATE  = 
ORIGINATOR     = 

OBJECT_NAME    = SL-8 R/B
OBJECT_ID      = 1985-006B
CENTER_NAME    = EARTH
REF_FRAME      = TEME
TIME_SYSTEM    = UTC
MEAN_ELEMENT_THEORY = SGP/SGP4

EPOCH          = 2026-01-15T10:32:46.991328
MEAN_MOTION    = 14.37746153
ECCENTRICITY   = .00197785
INCLINATION    = 74.0465
RA_OF_ASC_NODE = 359.1280
ARG_OF_PERICENTER = 285.7678
MEAN_ANOMALY   = 189.2008

EPHEMERIS_TYPE = 0
CLASSIFICATION_TYPE = U
NORAD_CAT_ID   = 15483
ELEMENT_SET_NO = 999
REV_AT_EPOCH   = 14637
BSTAR          = .79477048E-4
MEAN_MOTION_DOT = .213E-5
MEAN_MOTION_DDOT = 0

CCSDS_OMM_VERS = 2.0
CREATION_DATE  = 
ORIGINATOR     = 

OBJECT_NAME    = SL-12 R/B(2)
OBJECT_ID      = 1985-042D
CENTER_NAME    = EARTH
REF_FRAME      = TEME
TIME_SYSTEM    = UTC
MEAN_ELEMENT_THEORY = SGP/SGP4

EPOCH          = 2026-01-15T17:26:26.712384
MEAN_MOTION    = 14.21962388
ECCENTRICITY   = .0036372
INCLINATION    = 71.1064
RA_OF_ASC_NODE = 199.6193
ARG_OF_PERICENTER = 211.1769
MEAN_ANOMALY   = 226.2369

EPHEMERIS_TYPE = 0
CLASSIFICATION_TYPE = U
NORAD_CAT_ID   = 15772
ELEMENT_SET_NO = 999
REV_AT_EPOCH   = 10686
BSTAR          = .20054E-4
MEAN_MOTION_DOT = -.3E-7
MEAN_MOTION_DDOT = 0

CCSDS_OMM_VERS = 2.0
CREATION_DATE  = 
ORIGINATOR     = 

OBJECT_NAME    = SL-14 R/B
OBJECT_ID      = 1985-069B
CENTER_NAME    = EARTH
REF_FRAME      = TEME
TIME_SYSTEM    = UTC
MEAN_ELEMENT_THEORY = SGP/SGP4

EPOCH          = 2026-01-15T15:08:48.400800
MEAN_MOTION    = 14.86365121
ECCENTRICITY   = .0019061
INCLINATION    = 82.5255
RA_OF_ASC_NODE = 74.8393
ARG_OF_PERICENTER = 13.0093
MEAN_ANOMALY   = 347.1611

EPHEMERIS_TYPE = 0
CLASSIFICATION_TYPE = U
NORAD_CAT_ID   = 15945
ELEMENT_SET_NO = 999
REV_AT_EPOCH   = 16495
BSTAR          = .30968E-4
MEAN_MOTION_DOT = .298E-5
MEAN_MOTION_DDOT = 0

CCSDS_OMM_VERS = 2.0
CREATION_DATE  = 
ORIGINATOR     = 

OBJECT_NAME    = SL-16 R/B
OBJECT_ID      = 1985-097B
CENTER_NAME    = EARTH
REF_FRAME      = TEME
TIME_SYSTEM    = UTC
MEAN_ELEMENT_THEORY = SGP/SGP4

EPOCH          = 2026-01-15T17:52:59.801376
MEAN_MOTION    = 14.16592270
ECCENTRICITY   = .0008708
INCLINATION    = 71.0018
RA_OF_ASC_NODE = 252.0142
ARG_OF_PERICENTER = 322.3937
MEAN_ANOMALY   = 102.0781

EPHEMERIS_TYPE = 0
CLASSIFICATION_TYPE = U
NORAD_CAT_ID   = 16182
ELEMENT_SET_NO = 999
REV_AT_EPOCH   = 7973
BSTAR          = -.38203E-4
MEAN_MOTION_DOT = -.124E-5
MEAN_MOTION_DDOT = 0

CCSDS_OMM_VERS = 2.0
CREATION_DATE  = 
ORIGINATOR     = 

OBJECT_NAME    = SL-14 R/B
OBJECT_ID      = 1986-006B
CENTER_NAME    = EARTH
REF_FRAME      = TEME
TIME_SYSTEM    = UTC
MEAN_ELEMENT_THEORY = SGP/SGP4

EPOCH          = 2026-01-15T18:09:16.351200
MEAN_MOTION    = 14.86722002
ECCENTRICITY   = .0078291
INCLINATION    = 82.5288
RA_OF_ASC_NODE = 309.5476
ARG_OF_PERICENTER = 88.1633
MEAN_ANOMALY   = 272.8549

EPHEMERIS_TYPE = 0
CLASSIFICATION_TYPE = U
NORAD_CAT_ID   = 16496
ELEMENT_SET_NO = 999
REV_AT_EPOCH   = 14134
BSTAR          = .46361E-4
MEAN_MOTION_DOT = .464E-5
MEAN_MOTION_DDOT = 0

CCSDS_OMM_VERS = 2.0
CREATION_DATE  = 
ORIGINATOR     = 

OBJECT_NAME    = COSMOS 1743
OBJECT_ID      = 1986-034A
CENTER_NAME    = EARTH
REF_FRAME      = TEME
TIME_SYSTEM    = UTC
MEAN_ELEMENT_THEORY = SGP/SGP4

EPOCH          = 2026-01-15T17:37:10.726752
MEAN_MOTION    = 15.54445066
ECCENTRICITY   = .0005381
INCLINATION    = 82.5357
RA_OF_ASC_NODE = 129.2242
ARG_OF_PERICENTER = 125.9449
MEAN_ANOMALY   = 234.2305

EPHEMERIS_TYPE = 0
CLASSIFICATION_TYPE = U
NORAD_CAT_ID   = 16719
ELEMENT_SET_NO = 999
REV_AT_EPOCH   = 17201
BSTAR          = .3581E-3
MEAN_MOTION_DOT = .23604E-3
MEAN_MOTION_DDOT = 0

